satname,norad_id,inclination_deg,eccentricity,mean_motion_rev_per_day,perigee_km,apogee_km,l1,l2
STARLINK-1008,44714,53.0556,0.0001389,15.06374318,546.3283288397788,548.2522125355763,1 44714U 19074B   26004.61383280 -.00005352  00000+0 -34089-3 0  9997,2 44714  53.0556 114.2683 0001389  84.2825 275.8322 15.06374318339092
STARLINK-1012,44718,53.0567,0.0001074,15.06385142,546.5133086167234,548.0008832685326,1 44718U 19074F   26004.59172901 -.00000473  00000+0 -12891-4 0  9991,2 44718  53.0567 114.3647 0001074  84.4411 275.6701 15.06385142339088
STARLINK-1017,44723,53.0527,0.0002844,15.19404639,505.6804526284095,509.59708188482455,1 44723U 19074L   26004.56447369  .00048256  00000+0  22511-2 0  9994,2 44723  53.0527 106.1582 0002844 137.3186 222.8030 15.19404639339200
STARLINK-1019,44724,53.0495,0.0006306,15.61852771,378.0422050351972,386.56847491437475,1 44724U 19074M   26004.91668980  .00097824  00000+0  10983-2 0  9993,2 44724  53.0495  92.7520 0006306 324.8333 183.6875 15.61852771  5977
STARLINK-1020,44725,53.0555,0.0001206,15.0640475,546.3618046302681,548.0321951910473,1 44725U 19074N   26004.65989697  .00004150  00000+0  29728-3 0  9994,2 44725  53.0555 134.0609 0001206 101.8770 258.2354 15.06404750338817
STARLINK-1031,44736,53.0451,0.000202,15.65991803,369.02465200686675,371.75105604789496,1 44736U 19074Z   26004.91668980  .00071728  00000+0  68834-3 0  9990,2 44736  53.0451  78.9554 0002020  13.9786  45.4422 15.65991803  5878
STARLINK-1036,44741,53.0542,0.0001343,15.1665338,515.037722691136,516.8894781124045,1 44741U 19074AE  26004.91668980  .01029389  00000+0  48249-1 0  9999,2 44741  53.0542 132.6368 0001343  76.4529 215.6896 15.16653380  5633
STARLINK-1039,44744,53.0488,0.0001732,15.1654578,515.0955760650431,517.4838054707261,1 44744U 19074AH  26004.65822047  .00021986  00000+0  11260-2 0  9997,2 44744  53.0488 148.1845 0001732  92.1110 268.0082 15.16545780338621
STARLINK-1042,44747,53.0461,0.0002509,15.46408821,425.53420397298487,428.9491429913378,1 44747U 19074AL  26004.41704864  .00024160  00000+0  48763-3 0  9996,2 44747  53.0461  42.3550 0002509   4.8650 355.2380 15.46408821340119
STARLINK-1043,44748,53.0544,0.0001768,15.47264899,423.5284868997105,425.9339811072541,1 44748U 19074AM  26004.66383811  .00028552  00000+0  55774-3 0  9998,2 44748  53.0544 142.0819 0001768 222.3992 137.6878 15.47264899338713
STARLINK-1046,44751,53.0556,0.0001155,15.24432443,491.69666953564683,493.2837844250789,1 44751U 19074AQ  26004.91668980  .01967419  00000+0  71497-1 0  9996,2 44751  53.0556 152.1764 0001155  67.1150 173.5971 15.24432443  5689
STARLINK-1047,44752,53.0714,0.00034,15.30973832,470.5761653624904,475.23487427596774,1 44752U 19074AR  26004.48900386  .00013559  00000+0  45802-3 0  9997,2 44752  53.0714  85.5543 0003400  36.9085 323.2148 15.30973832339506
STARLINK-1048,44753,53.0548,0.0001114,15.21749335,499.7976399014169,501.33021446799285,1 44753U 19074AS  26004.91668980  .02033810  00000+0  79698-1 0  9999,2 44753  53.0548 112.4651 0001114  56.6753 254.8967 15.21749335  5836
STARLINK-1053,44758,53.0367,0.0002646,15.71415535,353.0690284001412,356.6321254258437,1 44758U 19074AX  26004.91668980  .00053766  00000+0  41512-3 0  9990,2 44758  53.0367  43.4706 0002646  22.1309  22.5105 15.71415535  5909
STARLINK-1060,44765,53.0445,0.0004235,15.8544665,312.23280212931786,317.9019462342494,1 44765U 19074BE  26004.91668980  .00202574  00000+0  81072-3 0  9996,2 44765  53.0445  86.2088 0004235 296.0033 247.3946 15.85446650  5923
STARLINK-1063,44768,53.0553,0.0001257,15.06398861,546.3445320588953,548.0855655639662,1 44768U 19074BH  26004.86448242  .00001905  00000+0  14672-3 0  9997,2 44768  53.0553 153.1426 0001257  94.5902 265.5230 15.06398861338585
STARLINK-1067,44771,53.0554,8.67e-05,15.42869226,437.05520576339404,438.23706255885736,1 44771U 19074BL  26004.91668980  .00061456  00000+0  13772-2 0  9996,2 44771  53.0554 150.0509 0000867  58.7389 312.2691 15.42869226  5530
STARLINK-1068,44772,53.0529,0.0003982,15.42908843,434.8154634972261,440.24346026747025,1 44772U 19074BM  26004.91668980  .00080335  00000+0  17903-2 0  9994,2 44772  53.0529 127.9555 0003982 350.4542  61.7099 15.42908843  5785
STARLINK-1112,44925,53.0442,0.0008006,15.72212916,347.18525937753475,357.9624736169699,1 44925U 20001M   26004.91668980  .00176871  00000+0  12892-2 0  9999,2 44925  53.0442 204.7037 0008006 118.8224 255.8083 15.72212916  5997
STARLINK-1114,44927,53.0554,0.0001451,15.21537776,500.2033433298993,502.1997273728575,1 44927U 20001P   26004.91668980  .01862802  00000+0  74119-1 0  9997,2 44927  53.0554 272.3185 0001451 135.0209 353.3627 15.21537776  5838
STARLINK-1123,44930,53.0548,0.0001466,15.06393084,546.2174953572685,548.2480137693065,1 44930U 20001S   26004.03515008 -.00000111  00000+0  11441-4 0  9995,2 44930  53.0548 276.8642 0001466 100.6499 259.4655 15.06393084330100
STARLINK-1144,44933,53.0358,0.0002184,15.83843118,318.12143534297684,321.04699997084936,1 44933U 20001V   26004.91668980  .00321776  00000+0  13700-2 0  9993,2 44933  53.0358 177.4368 0002184 290.5858  15.7398 15.83843118  5973
STARLINK-1094,44941,53.0529,0.0001086,15.06399566,546.4607950882437,547.9649810839355,1 44941U 20001AD  26004.84421005  .00004782  00000+0  33973-3 0  9999,2 44941  53.0529 253.2337 0001086  78.8154 281.2957 15.06399566330506
STARLINK-1122,44949,53.0547,0.0001275,15.06393528,546.3484092869521,548.1143782273602,1 44949U 20001AM  26004.86633310  .00000960  00000+0  83348-4 0  9999,2 44949  53.0547 253.1316 0001275  89.0161 271.0974 15.06393528330500
STARLINK-1080,44961,53.0536,0.0001203,15.38147316,450.766429655293,452.4096615012595,1 44961U 20001AZ  26004.91668980  .00019981  00000+0  53308-3 0  9995,2 44961  53.0536 230.8061 0001203  91.1286 193.6127 15.38147316  5723
STARLINK-1090,44968,53.0536,0.000141,15.06391654,546.2606595909674,548.2136150976985,1 44968U 20001BG  26004.80182434 -.00000407  00000+0 -84637-5 0  9991,2 44968  53.0536 233.4219 0001410  90.1399 269.9752 15.06391654330787
STARLINK-1132,45044,53.068,0.0001365,15.09959385,535.3801668223632,537.2678146728367,1 45044U 20006A   26004.91668980  .00950967  00000+0  54035-1 0  9997,2 45044  53.0680 192.8868 0001365  91.8495  44.8310 15.09959385  5632
STARLINK-1131,45047,53.0553,0.0001637,15.06404481,546.064147041956,548.3315016634497,1 45047U 20006D   26004.87008166  .00000283  00000+0  37879-4 0  9996,2 45047  53.0553 213.6583 0001637  92.5306 267.5871 15.06404481326834
STARLINK-1134,45048,53.0366,0.0004615,15.35002335,457.7573372605102,464.069780926553,1 45048U 20006E   26004.74909225  .00082994  00000+0  23934-2 0  9993,2 45048  53.0366 180.4486 0004615  80.8681 279.2842 15.35002335327298
STARLINK-1156,45054,53.0554,0.000129,15.06382242,546.372607200361,548.159361170281,1 45054U 20006L   26004.84053645 -.00000499  00000+0 -14631-4 0  9995,2 45054  53.0554 213.2491 0001290  89.9178 270.1959 15.06382242326836
STARLINK-1159,45057,53.0512,0.0006045,15.61410838,379.4934465540455,387.6683635012232,1 45057U 20006P   26004.91668980  .00218190  00000+0  24482-2 0  9990,2 45057  53.0512 190.7890 0006045 145.8275 270.8125 15.61410838  5984
STARLINK-1166,45060,53.0537,0.0001172,15.09272371,537.6114985735649,539.2327400311306,1 45060U 20006S   26004.91668980  .00055581  00000+0  34418-2 0  9997,2 45060  53.0537 212.8865 0001172  77.2463 207.2781 15.09272371  5821
STARLINK-1169,45061,53.0552,0.0001686,15.06397017,546.053085110444,548.3883157270247,1 45061U 20006T   26004.87369815  .00000084  00000+0  24515-4 0  9995,2 45061  53.0552 213.1024 0001686  92.0445 268.0737 15.06397017326841
STARLINK-1171,45062,53.0524,0.0014323,15.43844977,425.0158619222984,444.5321267566833,1 45062U 20006U   26004.78948821  .00104389  00000+0  22373-2 0  9997,2 45062  53.0524 196.5606 0014323 135.7810 224.4343 15.43844977327072
STARLINK-1133,45064,53.0563,0.0001519,15.06632263,545.4479444169829,547.5516490758355,1 45064U 20006W   26004.80529156  .00031372  00000+0  21025-2 0  9992,2 45064  53.0563 193.4068 0001519 101.6150 258.5010 15.06632263327113
STARLINK-1167,45071,53.067,0.000211,15.10216623,534.080014214177,536.9975854016948,1 45071U 20006AD  26004.91668980  .00112246  00000+0  67014-2 0  9999,2 45071  53.0670 192.8892 0002110  62.4516  52.5841 15.10216623  5598
STARLINK-1168,45072,53.0589,0.000213,15.07302461,542.9725146657265,545.921535460403,1 45072U 20006AE  26004.83401770  .00113748  00000+0  73516-2 0  9995,2 45072  53.0589 193.2683 0002130 162.2996 197.8068 15.07302461327115
STARLINK-1172,45074,53.0562,0.0001565,15.06399286,546.1299288545197,548.2975636380934,1 45074U 20006AG  26004.77970017 -.00000389  00000+0 -71988-5 0  9997,2 45074  53.0562 193.5233 0001565  89.9250 270.1918 15.06399286327109
STARLINK-1153,45080,53.0678,0.000137,15.09745373,536.0300382784144,537.924779626469,1 45080U 20006AN  26004.91668980  .00945083  00000+0  54040-1 0  9996,2 45080  53.0678 192.8870 0001370  90.9241  64.3002 15.09745373  5788
STARLINK-1151,45081,53.0537,0.0001546,15.4563801,428.45158961067136,430.55651222361394,1 45081U 20006AP  26004.91668980  .00169149  00000+0  33885-2 0  9993,2 45081  53.0537 187.4190 0001546 192.1157   1.9384 15.45638010  5749
STARLINK-1185,45087,53.056,0.0001456,15.06392539,546.2260908436083,548.2427590025463,1 45087U 20006AV  26004.78523757  .00000062  00000+0  23070-4 0  9991,2 45087  53.0560 173.4974 0001456  95.9388 264.1767 15.06392539327398
STARLINK-1183,45088,53.0568,0.0001361,15.0639452,546.2858111753312,548.1708956245266,1 45088U 20006AW  26004.74100262 -.00000644  00000+0 -24381-4 0  9994,2 45088  53.0568 173.6976 0001361  91.1442 268.9703 15.06394520327388
STARLINK-1152,45096,53.0437,0.0002832,15.30948957,471.0394942744406,474.9199667906141,1 45096U 20006BE  26004.70607171  .00075391  00000+0  24735-2 0  9990,2 45096  53.0437 146.4786 0002832  76.5216 283.6099 15.30948957327769
